GSAT-17                 
1 42815U 17040B   26162.35637656 -.00000241  00000+0  00000+0 0  9996
2 42815   0.1114  88.0254 0001600 207.2283 186.2546  1.00270654 32739
INTELSAT 35E (IS-35E)   
1 42818U 17041A   26162.39761128 -.00000221  00000+0  00000+0 0  9994
2 42818   0.0188 325.5986 0001678 111.0010 291.8096  1.00270589 32750
COSMOS 2520             
1 42907U 17046A   26161.56271131  .00000154  00000+0  00000+0 0  9990
2 42907   0.0454  86.1390 0001053  55.6369   4.7331  1.00271321 32333
TDRS 13                 
1 42915U 17047A   26162.33574205 -.00000085  00000+0  00000+0 0  9998
2 42915   3.4501   2.5758 0014498 105.9210 260.6173  1.00271625 32292
QZS-3 (MICHIBIKI-3)     
1 42917U 17048A   26162.57706409 -.00000331  00000+0  00000+0 0  9994
2 42917   0.0670 170.0098 0002539 279.1209 145.5265  1.00267611 32201
AMAZONAS 5              
1 42934U 17053A   26160.32980735 -.00000266  00000+0  00000+0 0  9993
2 42934   0.0312 323.9850 0002412  64.7103 286.7531  1.00270254 31962
ASIASAT 9               
1 42942U 17057A   26162.29092666  .00000000  00000+0  00000+0 0  9996
2 42942   0.0386  44.0626 0002539  23.3223  59.1383  1.00264399 31801
INTELSAT 37E (IS-37E)   
1 42950U 17059A   26162.26314378 -.00000124  00000+0  00000+0 0  9999
2 42950   0.0178  11.8435 0002381  91.1558 233.3384  1.00269936 32000
BSAT-4A                 
1 42951U 17059B   26160.00712714 -.00000334  00000+0  00000+0 0  9999
2 42951   0.0365   6.7991 0004164  58.5529 304.4340  1.00272912 31712
QZS-4 (MICHIBIKI-4)     
1 42965U 17062A   26162.36373252 -.00000318  00000+0  00000+0 0  9991
2 42965  40.1116 343.5575 0745200 271.6390 272.9173  1.00252284 31749
SES-11 (ECHOSTAR 105)   
1 42967U 17063A   26160.67756544 -.00000072  00000+0  00000+0 0  9992
2 42967   0.0151 352.2876 0002679  98.2971 306.4353  1.00270770 31642
KOREASAT 5A             
1 42984U 17067A   26162.57429074 -.00000341  00000+0  00000+0 0  9990
2 42984   0.0090 318.5959 0000464 140.8020 120.4155  1.00269554 31472
ALCOMSAT 1              
1 43039U 17078A   26162.33305537 -.00000169  00000+0  00000+0 0  9993
2 43039   0.0412  75.5352 0002229   0.4582 278.8010  1.00271918 31233
SBIRS GEO-3 (USA 282)   
1 43162U 18009A   26162.59162056  .00000143  00000+0  00000+0 0  9991
2 43162   2.1799  11.8125 0001918  63.9521 237.7585  1.00271606 30787
AL YAH 3                
1 43174U 18012A   26162.33400870 -.00000139  00000+0  00000+0 0  9995
2 43174   1.5359  83.1759 0003970 357.1756 279.4773  1.00270700 30784
SES-14                  
1 43175U 18012B   26160.47501219 -.00000261  00000+0  00000+0 0  9994
2 43175   0.0220  31.0141 0001057  53.8990 296.4420  1.00270313  6946
GOES 17                 
1 43226U 18022A   26162.53415064 -.00000166  00000+0  00000+0 0  9997
2 43226   0.9221  85.8109 0000481  24.5670 252.3064  1.00270838 30364
HISPASAT 30W-6          
1 43228U 18023A   26160.19333439 -.00000199  00000+0  00000+0 0  9991
2 43228   0.0466  43.0702 0006065  24.4046 229.6971  1.00270107 30322
SUPERBIRD-B3            
1 43271U 18033A   26162.54419965 -.00000076  00000+0  00000+0 0  9994
2 43271   0.0115 310.7137 0001204 156.9599 150.1265  1.00270511 30009
HYLAS 4                 
1 43272U 18033B   26161.83235015 -.00000216  00000+0  00000+0 0  9994
2 43272   0.0188  59.6501 0001184  20.7984  84.9113  1.00270681 30001
IRNSS-1I                
1 43286U 18035A   26161.99880640  .00000084  00000+0  00000+0 0  9990
2 43286  28.7398  74.2932 0017878 181.9830  57.5112  1.00270739 30014
USA 283                 
1 43339U 18036A   26161.43655905  .00000000  00000+0  00000+0 0  9991
2 43339   0.0149 323.1993 0000130 214.6638  12.1871  1.00269147 25223
COSMOS 2526             
1 43432U 18037A   26162.00690613 -.00000327  00000+0  00000+0 0  9998
2 43432   0.0303  76.5937 0000807  95.3826 217.9413  1.00278103 29896
APSTAR-6C               
1 43450U 18041A   26162.36451252 -.00000301  00000+0  00000+0 0  9998
2 43450   0.0240 340.9036 0001105   7.0969 176.9539  1.00271624 29753
BANGABANDHUSAT-1        
1 43463U 18044A   26162.57550409  .00000000  00000+0  00000+0 0  9997
2 43463   0.0188   5.4414 0001682  79.2804 141.4643  1.00267673 29651
SES-12                  
1 43488U 18049A   26162.49943873 -.00000253  00000+0  00000+0 0  9992
2 43488   0.0231  34.3989 0001002 267.7443 232.5100  1.00272457 29368
FENGYUN 2H              
1 43491U 18050A   26162.63890620 -.00000115  00000+0  00000+0 0  9992
2 43491   3.0156  79.1427 0001782 130.6874 359.5967  1.00270471 29383
BEIDOU-2 IGSO-7         
1 43539U 18057A   26161.99549046  .00000040  00000+0  00000+0 0  9999
2 43539  55.1937 163.1120 0104847 237.9272 327.1184  1.00253023 29065
TELSTAR 19V             
1 43562U 18059A   26160.04519647 -.00000262  00000+0  00000+0 0  9993
2 43562   0.0357 175.1217 0003228 305.1580  90.4046  1.00255741 29063
TELKOM 4 (MERAH PUTIH)  
1 43587U 18064A   26162.66242687  .00000000  00000+0  00000+0 0  9992
2 43587   0.0206  10.1080 0001308 108.0896 128.2688  1.00267478 28821
TELSTAR 18V             
1 43611U 18069A   26162.57921185 -.00000277  00000+0  00000+0 0  9999
2 43611   0.0128 300.7624 0001688 138.4672 167.2163  1.00269415 28581
AZERSPACE 2 (IS-38)     
1 43632U 18074A   26162.13310603  .00000154  00000+0  00000+0 0  9990
2 43632   0.0036  69.3548 0001198  12.8510 270.3100  1.00271976 28387
